     2              NAVIGATION DATA                         RINEX VERSION / TYPE
CCRINEXN V1.6.0 UX  CDDIS               31-JAN-14 17:31     PGM / RUN BY / DATE 
IGS BROADCAST EPHEMERIS FILE                                COMMENT             
    0.1956D-07 -0.7451D-08 -0.5960D-07  0.1192D-06          ION ALPHA           
    0.1372D+06 -0.1311D+06  0.6554D+05 -0.1966D+06          ION BETA            
   -0.186264514923D-08-0.532907051820D-14   589824     1777 DELTA-UTC: A0,A1,T,W
    16                                                      LEAP SECONDS        
                                                            END OF HEADER       
10 14  1 30 15 59 44.0-0.112192239612D-03-0.159161572810D-11 0.000000000000D+00
    0.150000000000D+02 0.140625000000D+02 0.565594987873D-08 0.223347528107D+01
    0.510364770889D-06 0.134306387045D-01 0.425055623054D-05 0.515368668747D+04
    0.403184000000D+06-0.141561031342D-06 0.149080793219D+01-0.257045030594D-06
    0.941967045440D+00 0.288812500000D+03 0.854152697426D+00-0.849928260066D-08
    0.177507393895D-09 0.000000000000D+00 0.177700000000D+04 0.000000000000D+00
    0.200000000000D+01 0.000000000000D+00-0.279396772385D-08 0.150000000000D+02
    0.402420000000D+06 0.400000000000D+01 0.000000000000D+00 0.000000000000D+00
11 14  1 30 15 59 44.0-0.460055191070D-03-0.329691829393D-11 0.000000000000D+00
    0.120000000000D+02-0.502500000000D+02 0.583560021903D-08-0.143809749577D+01
   -0.243820250034D-05 0.147654881002D-01 0.126808881760D-04 0.515370531273D+04
    0.403184000000D+06 0.210478901863D-06 0.117819482466D+00 0.316649675369D-06
    0.890491458166D+00 0.949687500000D+02 0.126118921894D+01-0.856321383509D-08
    0.295012288446D-09 0.000000000000D+00 0.177700000000D+04 0.000000000000D+00
    0.200000000000D+01 0.000000000000D+00-0.116415321827D-07 0.120000000000D+02
    0.396000000000D+06 0.400000000000D+01 0.000000000000D+00 0.000000000000D+00
14 14  1 30 15 59 44.0 0.202349387109D-03-0.306954461848D-11 0.000000000000D+00
    0.400000000000D+01-0.421875000000D+02 0.430839374761D-08 0.100566627587D+01
   -0.213272869587D-05 0.726338697132D-02 0.111367553472D-04 0.515361417007D+04
    0.403184000000D+06-0.119209289551D-06 0.259758365944D+01-0.409781932831D-07
    0.971440299451D+00 0.174312500000D+03-0.198699408020D+01-0.797640367780D-08
   -0.890394231351D-09 0.100000000000D+01 0.177700000000D+04 0.000000000000D+00
    0.200000000000D+01 0.000000000000D+00-0.884756445885D-08 0.400000000000D+01
    0.398346000000D+06 0.400000000000D+01 0.000000000000D+00 0.000000000000D+00
16 14  1 30 15 59 44.0-0.233454164118D-03 0.147792889038D-11 0.000000000000D+00
    0.140000000000D+02 0.376250000000D+02 0.429803617332D-08 0.208919790695D+01
    0.193528831005D-05 0.736943352967D-02 0.311061739922D-06 0.515379165840D+04
    0.403184000000D+06-0.521540641785D-07-0.160981586005D+01 0.128522515297D-06
    0.986846519422D+00 0.388781250000D+03 0.132427342690D+00-0.836892002768D-08
    0.120362156424D-09 0.100000000000D+01 0.177700000000D+04 0.000000000000D+00
    0.200000000000D+01 0.000000000000D+00-0.977888703346D-08 0.140000000000D+02
    0.396018000000D+06 0.400000000000D+01 0.000000000000D+00 0.000000000000D+00
17 14  1 30 15 59 44.0-0.639036297798D-04-0.329691829393D-11 0.000000000000D+00
    0.400000000000D+01-0.146031250000D+03 0.433446626220D-08 0.112935947390D+01
   -0.765360891819D-05 0.909500720445D-02 0.848434865475D-05 0.515374325561D+04
    0.403184000000D+06-0.135973095894D-06-0.575807342858D+00 0.987201929092D-07
    0.967819283158D+00 0.218437500000D+03-0.214253844853D+01-0.823248577322D-08
   -0.395730769489D-09 0.000000000000D+00 0.177700000000D+04 0.000000000000D+00
    0.200000000000D+01 0.000000000000D+00-0.102445483208D-07 0.400000000000D+01
    0.396000000000D+06 0.400000000000D+01 0.000000000000D+00 0.000000000000D+00
18 14  1 30 15 59 44.0 0.299063976854D-03 0.216004991671D-11 0.000000000000D+00
    0.170000000000D+02 0.253437500000D+02 0.591346060509D-08 0.274185920345D+01
    0.115111470222D-05 0.146837396314D-01 0.405684113502D-05 0.515365556717D+04
    0.403184000000D+06 0.260770320892D-07 0.147007245526D+01-0.217929482460D-06
    0.925744467441D+00 0.279468750000D+03-0.206298704803D+01-0.855071331439D-08
    0.215008955986D-09 0.100000000000D+01 0.177700000000D+04 0.000000000000D+00
    0.200000000000D+01 0.000000000000D+00-0.107102096081D-07 0.170000000000D+02
    0.396018000000D+06 0.400000000000D+01 0.000000000000D+00 0.000000000000D+00
19 14  1 30 15 59 44.0-0.435643363744D-03-0.250111042988D-11 0.000000000000D+00
    0.800000000000D+01-0.135968750000D+03 0.430125059292D-08 0.302607612456D+00
   -0.710226595402D-05 0.987466890365D-02 0.819377601147D-05 0.515358012772D+04
    0.403184000000D+06 0.763684511185D-07-0.524621849314D+00 0.124797224999D-06
    0.965013839306D+00 0.225093750000D+03 0.403050581772D+00-0.820927052050D-08
   -0.296083761649D-09 0.000000000000D+00 0.177700000000D+04 0.000000000000D+00
    0.200000000000D+01 0.000000000000D+00-0.149011611938D-07 0.800000000000D+01
    0.399150000000D+06 0.400000000000D+01 0.000000000000D+00 0.000000000000D+00
22 14  1 30 15 59 44.0 0.210163649172D-03 0.227373675443D-11 0.000000000000D+00
    0.200000000000D+01 0.287500000000D+02 0.606382401118D-08 0.220450144242D+01
    0.139325857163D-05 0.671940471511D-02 0.422261655331D-05 0.515372371864D+04
    0.403184000000D+06-0.279396772385D-07 0.147218483436D+01-0.162050127983D-06
    0.923509482642D+00 0.279093750000D+03-0.206395299675D+01-0.877143679412D-08
    0.280368821344D-09 0.100000000000D+01 0.177700000000D+04 0.000000000000D+00
    0.200000000000D+01 0.000000000000D+00-0.172294676304D-07 0.200000000000D+01
    0.400578000000D+06 0.400000000000D+01 0.000000000000D+00 0.000000000000D+00
29 14  1 30 15 59 44.0 0.507226679474D-03 0.284217094304D-11 0.000000000000D+00
    0.600000000000D+01-0.162218750000D+03 0.421696136765D-08-0.221482362708D+01
   -0.826828181744D-05 0.160314142704D-02 0.792182981968D-05 0.515376876640D+04
    0.403184000000D+06 0.465661287308D-07-0.566847253429D+00 0.484287738800D-07
    0.968529923410D+00 0.229531250000D+03-0.101451087376D+01-0.809605151876D-08
   -0.330728061866D-09 0.100000000000D+01 0.177700000000D+04 0.000000000000D+00
    0.200000000000D+01 0.000000000000D+00-0.931322574616D-08 0.600000000000D+01
    0.396018000000D+06 0.400000000000D+01 0.000000000000D+00 0.000000000000D+00
31 14  1 30 15 59 44.0 0.332836061716D-03 0.341060513165D-12 0.000000000000D+00
    0.320000000000D+02 0.124218750000D+03 0.382980238379D-08-0.168562141491D+01
    0.645779073238D-05 0.824125995859D-02 0.120159238577D-04 0.515376964378D+04
    0.403184000000D+06-0.126659870148D-06-0.268428814271D+01-0.298023223877D-07
    0.979507679695D+00 0.162156250000D+03-0.669072116945D+00-0.777246661157D-08
    0.220009164265D-09 0.100000000000D+01 0.177700000000D+04 0.000000000000D+00
    0.200000000000D+01 0.000000000000D+00-0.130385160446D-07 0.320000000000D+02
    0.401226000000D+06 0.400000000000D+01 0.000000000000D+00 0.000000000000D+00
32 14  1 30 15 59 44.0-0.493769533932D-03 0.602540239925D-11 0.000000000000D+00
    0.300000000000D+01 0.759375000000D+01 0.560451916501D-08-0.108742380071D+01
    0.415369868278D-06 0.115026561543D-01 0.392645597458D-05 0.515350195312D+04
    0.403184000000D+06 0.689178705216D-07 0.156172604013D+01-0.130385160446D-06
    0.947635506285D+00 0.298062500000D+03-0.190239749804D+00-0.874143554445D-08
    0.277511559470D-09 0.000000000000D+00 0.177700000000D+04 0.000000000000D+00
    0.200000000000D+01 0.000000000000D+00-0.325962901115D-08 0.300000000000D+01
    0.397350000000D+06 0.400000000000D+01 0.000000000000D+00 0.000000000000D+00
 1 14  1 30 16  0  0.0 0.103772617877D-03 0.227373675443D-11 0.000000000000D+00
    0.380000000000D+02-0.593750000000D+00 0.438053960991D-08-0.107521240950D+01
   -0.875443220139D-07 0.267074489966D-02 0.129677355290D-04 0.515368938255D+04
    0.403200000000D+06 0.316649675369D-07 0.432982966770D+00-0.577419996262D-07
    0.961035152709D+00 0.129781250000D+03 0.391419756913D+00-0.785497004817D-08
    0.593238996500D-09 0.000000000000D+00 0.177700000000D+04 0.000000000000D+00
    0.200000000000D+01 0.000000000000D+00 0.838190317154D-08 0.380000000000D+02
    0.396000000000D+06 0.400000000000D+01 0.000000000000D+00 0.000000000000D+00
 2 14  1 30 16  0  0.0 0.475771259516D-03 0.216004991671D-11 0.000000000000D+00
    0.540000000000D+02-0.381250000000D+01 0.500020827874D-08-0.366420104925D+00
   -0.577419996262D-07 0.130820283666D-01 0.131968408823D-04 0.515380621147D+04
    0.403200000000D+06 0.558793544769D-07 0.405941259620D+00 0.230967998505D-06
    0.939574387330D+00 0.116187500000D+03-0.250277495380D+01-0.831534636755D-08
    0.625740350312D-09 0.100000000000D+01 0.177700000000D+04 0.000000000000D+00
    0.200000000000D+01 0.000000000000D+00-0.200234353542D-07 0.540000000000D+02
    0.396018000000D+06 0.400000000000D+01 0.000000000000D+00 0.000000000000D+00
 5 14  1 30 16  0  0.0-0.390499364585D-03 0.147792889038D-11 0.000000000000D+00
    0.190000000000D+02 0.194375000000D+02 0.562416284039D-08 0.187173585861D+01
    0.113435089588D-05 0.353355612606D-02 0.451132655144D-05 0.515377255058D+04
    0.403200000000D+06-0.577419996262D-07 0.147285145980D+01 0.707805156708D-07
    0.947166447936D+00 0.287500000000D+03 0.376091163764D+00-0.859357224249D-08
    0.198222542479D-09 0.100000000000D+01 0.177700000000D+04 0.000000000000D+00
    0.200000000000D+01 0.000000000000D+00-0.102445483208D-07 0.190000000000D+02
    0.400590000000D+06 0.000000000000D+00 0.000000000000D+00 0.000000000000D+00
